[{"OBJECT_NAME":"STARLINK-34244","OBJECT_ID":"2025-190A","EPOCH":"2026-03-09T13:33:07.280640","MEAN_MOTION":15.30183293,"ECCENTRICITY":0.0001286,"INCLINATION":53.1581,"RA_OF_ASC_NODE":168.9585,"ARG_OF_PERICENTER":83.6492,"MEAN_ANOMALY":276.4655,"EPHEMERIS_TYPE":0,"CLASSIFICATION_TYPE":"U","NORAD_CAT_ID":65351,"ELEMENT_SET_NO":999,"REV_AT_EPOCH":2973,"BSTAR":0.0013075,"MEAN_MOTION_DOT":0.00038546,"MEAN_MOTION_DDOT":0},{"OBJECT_NAME":"COSMOS 1408 DEB","OBJECT_ID":"1982-092ADS","EPOCH":"2026-03-09T15:14:01.495392","MEAN_MOTION":15.34178134,"ECCENTRICITY":0.0122957,"INCLINATION":82.1939,"RA_OF_ASC_NODE":124.7493,"ARG_OF_PERICENTER":254.6382,"MEAN_ANOMALY":104.1246,"EPHEMERIS_TYPE":0,"CLASSIFICATION_TYPE":"U","NORAD_CAT_ID":50404,"ELEMENT_SET_NO":999,"REV_AT_EPOCH":22516,"BSTAR":0.0029669,"MEAN_MOTION_DOT":0.00127192,"MEAN_MOTION_DDOT":0}]
